NORAD_CAT_ID,OBJECT_NAME,OBJECT_TYPE,EPOCH,MEAN_MOTION,ECCENTRICITY,INCLINATION,RA_OF_ASC_NODE,ARG_OF_PERICENTER,MEAN_ANOMALY,BSTAR,MEAN_MOTION_DOT,MEAN_MOTION_DDOT,TLE_LINE0,TLE_LINE1,TLE_LINE2,SEMIMAJOR_AXIS,PERIOD,APOGEE,PERIGEE,DECAYED
52534.0,STARLINK-3952,PAYLOAD,2023-11-03 13:36:49,15.08847247,0.0001184,53.2193,16.8937,89.1726,270.9401,3.6683e-05,2.96e-06,0.0,0 STARLINK-3952,1 52534U 22051B   23307.56723571  .00000296  00000-0  36683-4 0  9997,2 52534  53.2193  16.8937 0001184  89.1726 270.9401 15.08847247 82789,6917.858,95.437,540.542,538.904,0.0
52534.0,STARLINK-3952,PAYLOAD,2023-11-04 03:55:18,15.08835154,0.000134,53.219,14.2182,86.3323,273.7822,-2.8416e-05,-7.4e-06,0.0,0 STARLINK-3952,1 52534U 22051B   23308.16340888 -.00000740  00000-0 -28416-4 0  9991,2 52534  53.2190  14.2182 0001340  86.3323 273.7822 15.08835154 82205,6917.895,95.438,540.687,538.833,0.0
52534.0,STARLINK-3952,PAYLOAD,2023-11-04 11:52:13,15.08839408,0.0001551,53.2193,12.7322,78.1208,281.9958,5.4333e-05,5.77e-06,0.0,0 STARLINK-3952,1 52534U 22051B   23308.49460617  .00000577  00000-0  54333-4 0  9993,2 52534  53.2193  12.7322 0001551  78.1208 281.9958 15.08839408 82928,6917.882,95.438,540.82,538.674,0.0
52534.0,STARLINK-3952,PAYLOAD,2023-11-05 11:42:59,15.08864037,0.0001494,53.2186,8.2702,82.8118,277.3044,0.00040335,6.141e-05,0.0,0 STARLINK-3952,1 52534U 22051B   23309.48819096  .00006141  00000-0  40335-3 0  9991,2 52534  53.2186   8.2702 0001494  82.8118 277.3044 15.08864037 82404,6917.807,95.436,540.705,538.638,0.0
52534.0,STARLINK-3952,PAYLOAD,2023-11-06 03:36:50,15.08866501,0.0002041,53.2191,5.3005,66.226,293.8947,0.00041364,6.306e-05,0.0,0 STARLINK-3952,1 52534U 22051B   23310.15058608  .00006306  00000-0  41364-3 0  9997,2 52534  53.2191   5.3005 0002041  66.2260 293.8947 15.08866501 82501,6917.799,95.436,541.076,538.252,0.0
52534.0,STARLINK-3952,PAYLOAD,2023-11-06 09:58:24,15.08810308,0.000122,53.2188,4.1058,85.7145,274.3987,-0.00072884,-0.00011859,0.0,0 STARLINK-3952,1 52534U 22051B   23310.41556315 -.00011859  00000-0 -72884-3 0  9996,2 52534  53.2188   4.1058 0001220  85.7145 274.3987 15.08810308 82544,6917.971,95.439,540.68,538.992,0.0
52534.0,STARLINK-3952,PAYLOAD,2023-11-06 21:06:07,15.0880286,0.000149,53.2199,2.0239,97.6477,262.4684,-0.00064511,-0.0001053,0.0,0 STARLINK-3952,1 52534U 22051B   23310.87925506 -.00010530  00000-0 -64511-3 0  9991,2 52534  53.2199   2.0239 0001490  97.6477 262.4684 15.08802860 83281,6917.994,95.44,540.89,538.828,0.0
52534.0,STARLINK-3952,PAYLOAD,2023-11-07 03:27:40,15.08812484,0.000206,53.2197,0.8345,141.1963,218.9177,-0.00097809,-0.00015809,0.0,0 STARLINK-3952,1 52534U 22051B   23311.14421496 -.00015809  00000-0 -97809-3 0  9991,2 52534  53.2197   0.8345 0002060 141.1963 218.9177 15.08812484 82658,6917.964,95.439,541.255,538.404,0.0
52534.0,STARLINK-3952,PAYLOAD,2023-11-07 09:49:13,15.0881876,0.0001491,53.2187,359.647,104.2073,255.9085,-0.00016261,-2.873e-05,0.0,0 STARLINK-3952,1 52534U 22051B   23311.40918386 -.00002873  00000-0 -16261-3 0  9999,2 52534  53.2187 359.6470 0001491 104.2073 255.9085 15.08818760 83361,6917.945,95.439,540.842,538.779,0.0
52534.0,STARLINK-3952,PAYLOAD,2023-11-08 03:18:28,15.08829409,0.000126,53.2179,356.3769,88.0368,272.0769,0.00069401,0.00010771,0.0,0 STARLINK-3952,1 52534U 22051B   23312.13782995  .00010771  00000-0  69401-3 0  9993,2 52534  53.2179 356.3769 0001260  88.0368 272.0769 15.08829409 82806,6917.913,95.438,540.649,538.906,0.0
52534.0,STARLINK-3952,PAYLOAD,2023-11-08 09:40:00,15.08846221,0.000176,53.22,355.1859,119.3057,240.8111,0.00087258,0.00013629,0.0,0 STARLINK-3952,1 52534U 22051B   23312.40277983  .00013629  00000-0  87258-3 0  9994,2 52534  53.2200 355.1859 0001760 119.3057 240.8111 15.08846221 82845,6917.861,95.437,540.944,538.509,0.0
52534.0,STARLINK-3952,PAYLOAD,2023-11-09 07:55:23,15.08852208,0.0001619,53.2183,351.0269,111.988,248.1285,0.00039238,5.964e-05,0.0,0 STARLINK-3952,1 52534U 22051B   23313.33013452  .00005964  00000-0  39238-3 0  9994,2 52534  53.2183 351.0269 0001619 111.9880 248.1285 15.08852208 82980,6917.843,95.437,540.828,538.588,0.0
52534.0,STARLINK-3952,PAYLOAD,2023-11-09 19:03:05,15.08852983,0.0001347,53.2179,348.9434,95.7756,264.339,0.00012091,1.638e-05,0.0,0 STARLINK-3952,1 52534U 22051B   23313.79381012  .00001638  00000-0  12091-3 0  9996,2 52534  53.2179 348.9434 0001347  95.7756 264.3390 15.08852983 83723,6917.841,95.437,540.638,538.774,0.0
52534.0,STARLINK-3952,PAYLOAD,2023-11-10 09:21:33,15.08847512,0.0001601,53.219,346.2689,97.7201,262.3973,-6.5648e-05,-1.333e-05,0.0,0 STARLINK-3952,1 52534U 22051B   23314.38997619 -.00001333  00000-0 -65648-4 0  9999,2 52534  53.2190 346.2689 0001601  97.7201 262.3973 15.08847512 83142,6917.857,95.437,540.83,538.615,0.0
52534.0,STARLINK-3952,PAYLOAD,2023-11-10 18:53:52,15.08843927,0.0001622,53.2194,344.4849,114.9486,245.1675,8.5967e-06,-1.51e-06,0.0,0 STARLINK-3952,1 52534U 22051B   23314.78741443 -.00000151  00000-0  85967-5 0  9998,2 52534  53.2194 344.4849 0001622 114.9486 245.1675 15.08843927 83878,6917.868,95.437,540.855,538.611,0.0
52534.0,STARLINK-3952,PAYLOAD,2023-11-11 10:47:43,15.08844827,0.000155,53.2191,341.5095,102.5687,257.5479,8.2982e-05,1.033e-05,0.0,0 STARLINK-3952,1 52534U 22051B   23315.44981148  .00001033  00000-0  82982-4 0  9992,2 52534  53.2191 341.5095 0001550 102.5687 257.5479 15.08844827 83309,6917.866,95.437,540.803,538.658,0.0
52534.0,STARLINK-3952,PAYLOAD,2023-11-11 12:23:06,15.08849246,0.00016,53.2189,341.2109,112.4971,247.6191,4.9907e-05,5.07e-06,0.0,0 STARLINK-3952,1 52534U 22051B   23315.51604813  .00000507  00000-0  49907-4 0  9996,2 52534  53.2189 341.2109 0001600 112.4971 247.6191 15.08849246 83986,6917.852,95.437,540.824,538.61,0.0
52534.0,STARLINK-3952,PAYLOAD,2023-11-12 09:03:07,15.08840733,0.0001513,53.2182,337.3443,94.6617,265.4548,8.8104e-05,1.114e-05,0.0,0 STARLINK-3952,1 52534U 22051B   23316.37717535  .00001114  00000-0  88104-4 0  9994,2 52534  53.2182 337.3443 0001513  94.6617 265.4548 15.08840733 83444,6917.878,95.438,540.79,538.696,0.0
52534.0,STARLINK-3952,PAYLOAD,2023-11-13 08:53:54,15.08851414,0.0001772,53.2181,332.8837,114.3442,245.7736,8.1028e-05,1.002e-05,0.0,0 STARLINK-3952,1 52534U 22051B   23317.37076832  .00001002  00000-0  81028-4 0  9997,2 52534  53.2181 332.8837 0001772 114.3442 245.7736 15.08851414 84262,6917.846,95.437,540.936,538.485,0.0
52534.0,STARLINK-3952,PAYLOAD,2023-11-13 18:26:13,15.08847557,0.0001508,53.218,331.1014,90.5465,269.57,8.5826e-05,1.078e-05,0.0,0 STARLINK-3952,1 52534U 22051B   23317.76821053  .00001078  00000-0  85826-4 0  9996,2 52534  53.2180 331.1014 0001508  90.5465 269.5700 15.08847557 83657,6917.857,95.437,540.766,538.679,0.0
52534.0,STARLINK-3952,PAYLOAD,2023-11-14 10:20:04,15.08848239,0.0001547,53.2178,328.125,103.3559,256.7606,0.00010463,1.378e-05,0.0,0 STARLINK-3952,1 52534U 22051B   23318.43060831  .00001378  00000-0  10463-3 0  9997,2 52534  53.2178 328.1250 0001547 103.3559 256.7606 15.08848239 84429,6917.855,95.437,540.79,538.65,0.0
52534.0,STARLINK-3952,PAYLOAD,2023-11-14 18:17:00,15.08838987,0.0001561,53.2179,326.6413,87.7184,272.3987,3.0334e-05,1.95e-06,0.0,0 STARLINK-3952,1 52534U 22051B   23318.76181671  .00000195  00000-0  30334-4 0  9995,2 52534  53.2179 326.6413 0001561  87.7184 272.3987 15.08838987 83805,6917.883,95.438,540.828,538.669,0.0
52534.0,STARLINK-3952,PAYLOAD,2023-11-15 10:10:52,15.08842258,0.0001633,53.2182,323.6657,96.2344,263.8835,2.3908e-05,9.2e-07,0.0,0 STARLINK-3952,1 52534U 22051B   23319.42421416  .00000092  00000-0  23908-4 0  9998,2 52534  53.2182 323.6657 0001633  96.2344 263.8835 15.08842258 84577,6917.873,95.437,540.868,538.609,0.0
52534.0,STARLINK-3952,PAYLOAD,2023-11-16 00:29:20,15.0883859,0.0001576,53.2182,320.988,102.5264,257.5905,6.1573e-05,6.92e-06,0.0,0 STARLINK-3952,1 52534U 22051B   23320.02037552  .00000692  00000-0  61573-4 0  9996,2 52534  53.2182 320.9880 0001576 102.5264 257.5905 15.08838590 83990,6917.885,95.438,540.84,538.659,0.0
52534.0,STARLINK-3952,PAYLOAD,2023-11-16 06:50:52,15.08849397,0.0001612,53.2181,319.7978,106.9941,253.1228,4.209e-05,3.82e-06,0.0,0 STARLINK-3952,1 52534U 22051B   23320.28532941  .00000382  00000-0  42090-4 0  9995,2 52534  53.2181 319.7978 0001612 106.9941 253.1228 15.08849397 84037,6917.852,95.437,540.832,538.602,0.0
52534.0,STARLINK-3952,PAYLOAD,2023-11-17 09:52:26,15.08839898,0.0001761,53.2182,314.7469,109.9259,250.1923,8.2353e-05,1.023e-05,0.0,0 STARLINK-3952,1 52534U 22051B   23321.41141654  .00001023  00000-0  82353-4 0  9997,2 52534  53.2182 314.7469 0001761 109.9259 250.1923 15.08839898 84201,6917.881,95.438,540.964,538.527,0.0
52534.0,STARLINK-3952,PAYLOAD,2023-11-17 16:13:59,15.08837086,0.0001513,53.2176,313.5545,99.1747,260.9416,5.2195e-05,5.43e-06,0.0,0 STARLINK-3952,1 52534U 22051B   23321.67637924  .00000543  00000-0  52195-4 0  9992,2 52534  53.2176 313.5545 0001513  99.1747 260.9416 15.08837086 84914,6917.889,95.438,540.801,538.708,0.0
52534.0,STARLINK-3952,PAYLOAD,2023-11-18 06:32:27,15.08837733,0.0001637,53.2181,310.8815,101.7977,258.3199,3.0547e-05,1.98e-06,0.0,0 STARLINK-3952,1 52534U 22051B   23322.27254204  .00000198  00000-0  30547-4 0  9998,2 52534  53.2181 310.8815 0001637 101.7977 258.3199 15.08837733 84336,6917.887,95.438,540.885,538.62,0.0
52534.0,STARLINK-3952,PAYLOAD,2023-11-18 16:04:46,15.08835362,0.0001593,53.218,309.0972,100.1165,260.0007,5.1205e-05,5.27e-06,0.0,0 STARLINK-3952,1 52534U 22051B   23322.66998401  .00000527  00000-0  51205-4 0  9995,2 52534  53.2180 309.0972 0001593 100.1165 260.0007 15.08835362 85067,6917.895,95.438,540.862,538.658,0.0
52534.0,STARLINK-3952,PAYLOAD,2023-11-19 07:58:37,15.08844742,0.0001587,53.2182,306.1229,101.8962,258.2208,6.6027e-05,7.63e-06,0.0,0 STARLINK-3952,1 52534U 22051B   23323.33237945  .00000763  00000-0  66027-4 0  9999,2 52534  53.2182 306.1229 0001587 101.8962 258.2208 15.08844742 84498,6917.866,95.437,540.829,538.633,0.0
